{
  "type": "FeatureCollection",
  "features": [
    {
      "type": "Feature",
      "properties": {
        "norad_id": 56564,
        "name": "BEIDOU-3 G4 (C62)",
        "group": "beidou",
        "lat": 0.41061949978763995,
        "lon": 93.62791672242818,
        "alt_km": 35783.321482897365,
        "timestamp": "2025-12-17T13:48:37.820488+00:00",
        "meta_object_name": "BEIDOU-3 G4 (C62)",
        "meta_object_id": "2023-066A",
        "meta_epoch": "2025-12-17T06:44:38.482944",
        "meta_mean_motion": 1.00271742,
        "meta_eccentricity": 0.00027703,
        "meta_inclination": 0.8052,
        "meta_ra_of_asc_node": 302.4125,
        "meta_arg_of_pericenter": 227.6484,
        "meta_mean_anomaly": 177.3219,
        "meta_ephemeris_type": 0,
        "meta_classification_type": "U",
        "meta_norad_cat_id": 56564,
        "meta_element_set_no": 999,
        "meta_rev_at_epoch": 957,
        "meta_bstar": 0,
        "meta_mean_motion_dot": -8.5e-07,
        "meta_mean_motion_ddot": 0,
        "tle_line1": "1 56564U 23066A   25351.28100096 -.00000085  00000+0  00000+0 0  9997",
        "tle_line2": "2 56564   0.8052 302.4125 0002770 227.6484 177.3219  1.00271742  9574"
      },
      "geometry": {
        "type": "Point",
        "coordinates": [
          93.62791672242818,
          0.41061949978763995
        ]
      }
    },
    {
      "type": "Feature",
      "properties": {
        "norad_id": 58654,
        "name": "BEIDOU-3 M28 (C50)",
        "group": "beidou",
        "lat": -19.875475853918346,
        "lon": -97.22568238263882,
        "alt_km": 21528.1098923983,
        "timestamp": "2025-12-17T13:48:37.820500+00:00",
        "meta_object_name": "BEIDOU-3 M28 (C50)",
        "meta_object_id": "2023-207A",
        "meta_epoch": "2025-12-15T15:50:05.112096",
        "meta_mean_motion": 1.8622982,
        "meta_eccentricity": 0.00025263,
        "meta_inclination": 55.587,
        "meta_ra_of_asc_node": 68.5025,
        "meta_arg_of_pericenter": 270.8998,
        "meta_mean_anomaly": 89.0909,
        "meta_ephemeris_type": 0,
        "meta_classification_type": "U",
        "meta_norad_cat_id": 58654,
        "meta_element_set_no": 999,
        "meta_rev_at_epoch": 1342,
        "meta_bstar": 0,
        "meta_mean_motion_dot": -8.4e-07,
        "meta_mean_motion_ddot": 0,
        "tle_line1": "1 58654U 23207A   25349.65978139 -.00000084  00000+0  00000+0 0  9994",
        "tle_line2": "2 58654  55.5870  68.5025 0002526 270.8998  89.0909  1.86229820 13427"
      },
      "geometry": {
        "type": "Point",
        "coordinates": [
          -97.22568238263882,
          -19.875475853918346
        ]
      }
    },
    {
      "type": "Feature",
      "properties": {
        "norad_id": 58655,
        "name": "BEIDOU-3 M26 (C48)",
        "group": "beidou",
        "lat": -16.366528725735055,
        "lon": 56.84144581539427,
        "alt_km": 21529.060517116068,
        "timestamp": "2025-12-17T13:48:37.820511+00:00",
        "meta_object_name": "BEIDOU-3 M26 (C48)",
        "meta_object_id": "2023-207B",
        "meta_epoch": "2025-12-15T23:51:52.176960",
        "meta_mean_motion": 1.86231301,
        "meta_eccentricity": 0.00039507,
        "meta_inclination": 55.5893,
        "meta_ra_of_asc_node": 68.4775,
        "meta_arg_of_pericenter": 256.9,
        "meta_mean_anomaly": 103.0764,
        "meta_ephemeris_type": 0,
        "meta_classification_type": "U",
        "meta_norad_cat_id": 58655,
        "meta_element_set_no": 999,
        "meta_rev_at_epoch": 1341,
        "meta_bstar": 0,
        "meta_mean_motion_dot": -8.2e-07,
        "meta_mean_motion_ddot": 0,
        "tle_line1": "1 58655U 23207B   25349.99435390 -.00000082  00000+0  00000+0 0  9997",
        "tle_line2": "2 58655  55.5893  68.4775 0003950 256.9000 103.0764  1.86231301 13417"
      },
      "geometry": {
        "type": "Point",
        "coordinates": [
          56.84144581539427,
          -16.366528725735055
        ]
      }
    },
    {
      "type": "Feature",
      "properties": {
        "norad_id": 61186,
        "name": "BEIDOU-3 M25 (C47)",
        "group": "beidou",
        "lat": 54.04857610751197,
        "lon": 50.45398282733735,
        "alt_km": 21535.937842781266,
        "timestamp": "2025-12-17T13:48:37.820522+00:00",
        "meta_object_name": "BEIDOU-3 M25 (C47)",
        "meta_object_id": "2024-168B",
        "meta_epoch": "2025-12-16T21:28:07.627872",
        "meta_mean_motion": 1.86230288,
        "meta_eccentricity": 0.00054374,
        "meta_inclination": 54.6383,
        "meta_ra_of_asc_node": 308.576,
        "meta_arg_of_pericenter": 298.7489,
        "meta_mean_anomaly": 61.643,
        "meta_ephemeris_type": 0,
        "meta_classification_type": "U",
        "meta_norad_cat_id": 61186,
        "meta_element_set_no": 999,
        "meta_rev_at_epoch": 839,
        "meta_bstar": 0,
        "meta_mean_motion_dot": -9.4e-07,
        "meta_mean_motion_ddot": 0,
        "tle_line1": "1 61186U 24168B   25350.89453273 -.00000094  00000+0  00000+0 0  9991",
        "tle_line2": "2 61186  54.6383 308.5760 0005437 298.7489  61.6430  1.86230288  8396"
      },
      "geometry": {
        "type": "Point",
        "coordinates": [
          50.45398282733735,
          54.04857610751197
        ]
      }
    },
    {
      "type": "Feature",
      "properties": {
        "norad_id": 61187,
        "name": "BEIDOU-3 M27 (C49)",
        "group": "beidou",
        "lat": -39.905355059843224,
        "lon": 164.92057983645807,
        "alt_km": 21534.869520745684,
        "timestamp": "2025-12-17T13:48:37.820533+00:00",
        "meta_object_name": "BEIDOU-3 M27 (C49)",
        "meta_object_id": "2024-168C",
        "meta_epoch": "2025-12-17T05:27:07.832736",
        "meta_mean_motion": 1.86230439,
        "meta_eccentricity": 0.00024902,
        "meta_inclination": 54.6334,
        "meta_ra_of_asc_node": 308.5482,
        "meta_arg_of_pericenter": 338.8897,
        "meta_mean_anomaly": 19.4657,
        "meta_ephemeris_type": 0,
        "meta_classification_type": "U",
        "meta_norad_cat_id": 61187,
        "meta_element_set_no": 999,
        "meta_rev_at_epoch": 586,
        "meta_bstar": 0,
        "meta_mean_motion_dot": -9.2e-07,
        "meta_mean_motion_ddot": 0,
        "tle_line1": "1 61187U 24168C   25351.22717399 -.00000092  00000+0  00000+0 0  9990",
        "tle_line2": "2 61187  54.6334 308.5482 0002490 338.8897  19.4657  1.86230439  5868"
      },
      "geometry": {
        "type": "Point",
        "coordinates": [
          164.92057983645807,
          -39.905355059843224
        ]
      }
    }
  ]
}